IRIDIUM 136             
1 42962U 17061H   23252.26120207  .00000097  00000+0  27424-4 0  9990
2 42962  86.3914  88.1644 0002237  93.3513 266.7938 14.34213913309795
